JCAT , SatcatLaunch_Tag Piece     , Type     , Name                        , PLName                      , LDate      , Parent      , SDate              , Primary, DDate              , Status Dest   , Owner       , State , Manufacturer, Bus              , Motor       , Mass     , DryMass   , TotMass  , Length, Diamete, Span   , Shape                    , ODate      , Perigee, Apogee, Inc   , OpOrbitOQU AltNames, STATUS, OBJECT_NAME             , OBJECT_ID , EPOCH                     , MEAN_MOTION, ECCENTRICITY, INCLINATION, RA_OF_ASC_NODE, ARG_OF_PERICENTER, MEAN_ANOMALY, EPHEMERIS_TYPE, CLASSIFICATION_TYPE, NORAD_CAT_ID, ELEMENT_SET_NO, REV_AT_EPOCH, BSTAR         , MEAN_MOTION_DOT, MEAN_MOTION_DDOT, LAST_UPDATED       , DATA_SOURCE               , TLE_LINE1                                                            , TLE_LINE2                                                            , N2YO_SAT_NAME              , TLE_FETCHED
23467, 23467 1995-003   1995-003A , P        , UHF F/O F4                  , UFO F4-EHF                  , 1995 Jan 29, S23468      , 1995 Jan 29 0153   , Earth  , -                  , O      -      , HCI         , US    , HSES        , HS-601           , R-4D-11-300 , 3023     , 1350      , 3023     , 4.0  ?, 3.0  ? , 18.3  ?, Box + 2 Pan              , 1995 Mar  8, 35646  , 35920 , 5.11  , GEO/I  -   USA 108:, ACTIVE, UFO 4 (USA 108)         , 1995-003A , 2025-10-03T10:46:38.405568,  1.0027579 , 0.00040483  ,      9.6936,        14.0472,          183.1301,     149.2993,            0.0, U                  ,      23467.0,          999.0,      11237.0, 0.0           , -1.4e-07       , 0.0             , 2025-10-04 23:19:22, planet4589.org + Celestrak, 1 23467U 95003A   25276.44905562 -.00000014  00000-0  00000-0 0  9992, 2 23467   9.6936  14.0472 0004048 183.1301 149.2993  1.00275790112370, UFO 4 (USA 108)            , YES
24307, 24307 1996-053   1996-053A , P        , INMARSAT III F-2            , INMARSAT III F-2            , 1996 Sep  6, S25339      , 1996 Sep  7 0032   , Earth  , 1999 Apr 15        , N      -      , INMAR       , I-INM , LMTEW       , AS4000           , Star 37FM?  , 1130     , 900    ?  , 1130     , 7.6   , 2.1    , 20.7   , Box + 2 Pan              , 1996 Oct  6, 36039  , 36053 , 2.67  , GEO/D  -           , ACTIVE, INMARSAT 3-F2           , 1996-053A , 2025-10-03T12:09:55.669248,  0.99981497, 0.00065405  ,      9.2727,        56.4832,          134.0075,      52.6052,            0.0, U                  ,      24307.0,          999.0,      10635.0, 0.0           , 1.39e-06       , 0.0             , 2025-10-04 23:19:22, planet4589.org + Celestrak, 1 24307U 96053A   25277.43447742  .00000141  00000-0  00000+0 0  9992, 2 24307   9.2748  56.4742 0006530 134.8055  25.6918  0.99981918106367, INMARSAT 3-F2              , YES
25019, 25019 1997-065   1997-065A , P ------c, DSCS III B-13               , DSCS III B-13               , 1997 Oct 25, S25020      , 1997 Oct 25 0112   , Earth  , -                  , O      GEO/S? , AFSMC/DISA  , US    , LMVF        , DSCS III         , AOCS        , 1232     , 900       , 1232     , 2.1   , 1.9    , 9.5    , Box + 2 Pan              , 1997 Nov  1, 35780? , 35800?, 0.00  , GEO/S  -   USA 134 , ACTIVE, USA 134                 , 1997-065A , 2025-10-03T11:24:19.109952,  1.00275563, 0.00034924  ,     12.4778,        23.5852,          236.9955,     170.5538,            0.0, U                  ,      25019.0,          999.0,       3038.0, 0.0           , -5.5e-07       , 0.0             , 2025-10-04 23:19:22, planet4589.org + Celestrak, 1 25019U 97065A   25277.46667257 -.00000055  00000-0  00000+0 0  9990, 2 25019  12.4775  23.5791 0003375 230.1659 175.3058  1.00275442 30395, USA 134                    , YES
25118, 25118 1997-084   1997-084G , P        , Orbcomm A2                  , Orbcomm FM6                 , 1997 Dec 23, S25121      , 1997 Dec 23 2018   , Earth  , -                  , O      LEO    , ORBC        , US    , OSCG        , Microstar        , -           , 42       , 42        , 42       , 0.2   , 1.0    , 4.3    , Cyl + 2 Pan + Ant        , 1998 Jan 22, 813    , 824   , 45.02 , LEO/I  -           , ACTIVE, ORBCOMM FM06            , 1997-084G , 2025-10-03T06:39:16.891776, 14.46474196, 0.00024379  ,     45.0124,       208.5632,          354.4285,     166.0848,            0.0, U                  ,      25118.0,          999.0,      45717.0, 0.0013187013  , 4.648e-05      , 0.0             , 2025-10-04 23:19:22, planet4589.org + Celestrak, 1 25118U 97084G   25277.52208041  .00003206  00000-0  92201-3 0  9998, 2 25118  45.0130 202.5810 0002274   0.6966 168.2241 14.46480392457351, ORBCOMM FM 6               , YES
25153, 25153 1998-006   1998-006B , P        , INMARSAT III F-5            , INMARSAT III F-5            , 1998 Feb  4, S25154      , 1998 Feb  4 2355   , Earth  , 1999 Apr 15        , N      -      , INMAR       , I-INM , LMEW        , AS4000           , Star 37FM   , 964      , 827       , 2000     , 7.6   , 2.1    , 20.7   , Box + 2 Pan              , 1998 Mar  6, 35783  , 35820 , 2.89  , GEO/D  -           , ACTIVE, INMARSAT 3-F5           , 1998-006B , 2025-10-03T06:40:00.026112,  1.00269991, 0.00049514  ,      9.1139,        55.7468,          143.1629,     219.3871,            0.0, U                  ,      25153.0,          999.0,      10132.0, 0.0           , -2.83e-06      , 0.0             , 2025-10-04 23:19:22, planet4589.org + Celestrak, 1 25153U 98006B   25276.27777808 -.00000283  00000-0  00000-0 0  9991, 2 25153   9.1139  55.7468 0004951 143.1629 219.3871  1.00269991101326, INMARSAT 3-F5              , YES
25159, 25159 1998-007   1998-007C , P        , Orbcomm G2                  , Orbcomm FM4                 , 1998 Feb 10, S25160      , 1998 Feb 10 1337   , Earth  , -                  , O      -      , ORBC        , US    , OSCG        , Microstar        , -           , 42       , 42        , 42       , 0.2   , 1.0    , 4.3    , Cyl + 2 Pan + Ant        , 1998 Mar 12, 777    , 804   , 108.00, LEO/R  -           , ACTIVE, ORBCOMM FM04            , 1998-007C , 2025-10-03T05:45:44.803296, 14.35006458, 0.00384305  ,    107.9619,         0.8989,           56.1078,     304.3709,            0.0, U                  ,      25159.0,          999.0,      43972.0, 0.00098839675 , 2.713e-05      , 0.0             , 2025-10-04 23:19:22, planet4589.org + Celestrak, 1 25159U 98007C   25277.49487351  .00002017  00000-0  74688-3 0  9996, 2 25159 107.9621   3.4778 0038447  53.7708 306.6977 14.35010919439901, ORBCOMM FM 4               , YES
25160, 25160 1998-007   1998-007D , R4       , Taurus 2 Stage 4            , Orion 38                    , 1998 Feb 10, R63907      , 1998 Feb 10 1332   , Earth  , -                  , O      -      , OSCC        , US    , ATKH        , Orion 38         , -           , 202      , 202       , 202      , 1.4   , 1.0    , 2.0    , Cyl                      , 1998 Mar 14, 782    , 871   , 107.99, LEO/R  -           , ACTIVE, CELESTIS-02 & TAURUS R/B, 1998-007D , 2025-10-03T12:21:14.556384, 14.2237645 , 0.0062636   ,    108.0019,       174.1537,          213.3165,     320.4612,            0.0, U                  ,      25160.0,          999.0,      43401.0, 0.00017362684 , 2.65e-06       , 0.0             , 2025-10-04 23:19:22, planet4589.org + Celestrak, 1 25160U 98007D   25277.49921397  .00000203  00000-0  14613-3 0  9998, 2 25160 108.0018 176.1403 0062584 211.6513 321.4379 14.22376932434155, CELESTIS 03/TAURUS R/B     , YES
25398, 25398 1998-043   1998-043E , P        , WESTPAC                     , WPLTN WESTPAC               , 1998 Jul 10, S25394      , 1998 Jul 10 0649?  , Earth  , -                  , O      -      , EOSAU       , AU    , EOSAU       , NIIKP            , -           , 24       , 24        , 24       , 0.2   , 0.2    , 0.2    , Sphere                   , 1998 Aug 10, 817    , 818   , 98.80 , LEO/S  -           , ACTIVE, WESTPAC                 , 1998-043E , 2025-10-03T08:24:04.523904, 14.23030101, 8.726e-05   ,     98.9845,       251.7299,          176.7792,     183.3391,            0.0, U                  ,      25398.0,          999.0,      41441.0, 4.7403451e-05 , 6e-07          , 0.0             , 2025-10-04 23:19:22, planet4589.org + Celestrak, 1 25398U 98043E   25277.47504411  .00000043  00000-0  39480-4 0  9995, 2 25398  98.9847 252.8775 0000937 173.6546 186.4643 14.23030274414570, WESTPAC                    , YES
25415, 25415 1998-046   1998-046C , P        , Orbcomm B7                  , Orbcomm FM19                , 1998 Aug  2, S25422      , 1998 Aug  2 1733   , Earth  , -                  , O      LEO    , ORBC        , US    , OSCG        , Microstar        , -           , 42       , 42        , 42       , 0.2   , 1.0    , 4.3    , Cyl + 2 Pan + Ant        , 1998 Sep  1, 814    , 824   , 45.00 , LEO/I  -           , ACTIVE, ORBCOMM FM19            , 1998-046C , 2025-10-03T15:58:50.196864, 14.38679875, 0.0003199   ,     44.9945,        22.2073,          136.3288,       3.6481,            0.0, U                  ,      25415.0,          999.0,      41982.0, 0.001119966   , 3.325e-05      , 0.0             , 2025-10-04 23:19:22, planet4589.org + Celestrak, 1 25415U 98046C   25276.66585876  .00003325  00000-0  11200-2 0  9996, 2 25415  44.9945  22.2073 0003199 136.3288   3.6481 14.38679875419827, ORBCOMM FM 19              , YES
